{
  "norad_id": 47375,
  "name": "STARLINK-2094",
  "history": [
    {
      "epoch": "2026-03-28T22:23:45.637440Z",
      "apogee_km": 478.61748892591004,
      "perigee_km": 476.7620279720022,
      "latitude_deg": 1.3137836489122631e-05,
      "longitude_deg": 170.73144638580186,
      "height_km": 478.6662990542123,
      "semi_major_axis_km": 6855.826758448956,
      "eccentricity": 0.00013532,
      "inclination_deg": 53.1568,
      "raan_deg": 333.0181,
      "arg_perigee_deg": 94.9,
      "mean_anomaly_deg": 265.2155,
      "mean_motion_rev_day": 15.2937156
    },
    {
      "epoch": "2026-03-29T01:31:57.641376Z",
      "apogee_km": 478.8196554590286,
      "perigee_km": 476.5078794402443,
      "latitude_deg": 6.100655387492418e-05,
      "longitude_deg": 122.944647293399,
      "height_km": 478.96791650542286,
      "semi_major_axis_km": 6855.800767449636,
      "eccentricity": 0.0001686,
      "inclination_deg": 53.1566,
      "raan_deg": 332.4101,
      "arg_perigee_deg": 110.6273,
      "mean_anomaly_deg": 249.4909,
      "mean_motion_rev_day": 15.29380257
    }
  ]
}